[{"OBJECT_NAME":"MESON-1","OBJECT_ID":"2024-043AK","EPOCH":"2026-03-09T21:36:16.481664","MEAN_MOTION":15.29893494,"ECCENTRICITY":0.00095452,"INCLINATION":97.5469,"RA_OF_ASC_NODE":205.2839,"ARG_OF_PERICENTER":227.1432,"MEAN_ANOMALY":132.9007,"EPHEMERIS_TYPE":0,"CLASSIFICATION_TYPE":"U","NORAD_CAT_ID":59131,"ELEMENT_SET_NO":999,"REV_AT_EPOCH":11189,"BSTAR":0.0002974823,"MEAN_MOTION_DOT":8.544e-5,"MEAN_MOTION_DDOT":0},{"OBJECT_NAME":"STARLINK-35585","OBJECT_ID":"2025-240AA","EPOCH":"2026-03-09T10:11:37.865184","MEAN_MOTION":15.30217853,"ECCENTRICITY":0.00016445,"INCLINATION":53.1589,"RA_OF_ASC_NODE":64.3324,"ARG_OF_PERICENTER":80.3548,"MEAN_ANOMALY":279.7639,"EPHEMERIS_TYPE":0,"CLASSIFICATION_TYPE":"U","NORAD_CAT_ID":66170,"ELEMENT_SET_NO":999,"REV_AT_EPOCH":2194,"BSTAR":0.00060128196,"MEAN_MOTION_DOT":0.00017501,"MEAN_MOTION_DDOT":0}]
